NORAD_CAT_ID,OBJECT_NAME,OBJECT_TYPE,EPOCH,MEAN_MOTION,ECCENTRICITY,INCLINATION,RA_OF_ASC_NODE,ARG_OF_PERICENTER,MEAN_ANOMALY,BSTAR,MEAN_MOTION_DOT,MEAN_MOTION_DDOT,TLE_LINE0,TLE_LINE1,TLE_LINE2,SEMIMAJOR_AXIS,PERIOD,APOGEE,PERIGEE,DECAYED
55406.0,STARLINK-5630,PAYLOAD,2023-03-27 14:32:17,15.70179963,0.0003616,70.0,295.2851,250.3279,109.7526,0.0010683,0.00131668,0.0,0 STARLINK-5630,1 55406U 23014R   23086.60575904  .00131668  00000-0  10683-2 0  9990,2 55406  70.0000 295.2851 0003616 250.3279 109.7526 15.70179963  9765,6736.519,91.709,360.82,355.948,0.0
55406.0,STARLINK-5630,PAYLOAD,2023-03-27 20:39:22,15.69915985,0.0002847,70.0009,294.5686,264.0422,96.0449,3.7406e-06,2.37e-06,0.0,0 STARLINK-5630,1 55406U 23014R   23086.86067592  .00000237  00000-0  37406-5 0  9999,2 55406  70.0009 294.5686 0002847 264.0422  96.0449 15.69915985  8861,6737.274,91.725,361.057,357.221,0.0
55406.0,STARLINK-5630,PAYLOAD,2023-03-27 22:11:07,15.69900654,0.0002408,70.0009,294.3894,262.3658,97.7265,-5.8686e-05,-7.254e-05,0.0,0 STARLINK-5630,1 55406U 23014R   23086.92439722 -.00007254  00000-0 -58686-4 0  9994,2 55406  70.0009 294.3894 0002408 262.3658  97.7265 15.69900654  9812,6737.318,91.726,360.806,357.561,0.0
55406.0,STARLINK-5630,PAYLOAD,2023-03-28 01:14:37,15.69932617,0.0003056,70.0003,294.0302,261.4649,98.62,6.0399e-05,7.058e-05,0.0,0 STARLINK-5630,1 55406U 23014R   23087.05182191  .00007058  00000-0  60399-4 0  9998,2 55406  70.0003 294.0302 0003056 261.4649  98.6200 15.69932617  8897,6737.227,91.724,361.151,357.033,0.0
55406.0,STARLINK-5630,PAYLOAD,2023-03-28 13:28:37,15.69948531,0.0002764,70.0007,292.5979,260.6314,99.457,8.8042e-05,0.00010397,0.0,0 STARLINK-5630,1 55406U 23014R   23087.56154789  .00010397  00000-0  88042-4 0  9991,2 55406  70.0007 292.5979 0002764 260.6314  99.4570 15.69948531  9914,6737.181,91.723,360.908,357.184,0.0
55406.0,STARLINK-5630,PAYLOAD,2023-03-28 21:07:23,15.69918184,0.0003417,69.9993,291.6998,274.1126,85.9679,6.5944e-06,5.8e-06,0.0,0 STARLINK-5630,1 55406U 23014R   23087.88013700  .00000580  00000-0  65944-5 0  9993,2 55406  69.9993 291.6998 0003417 274.1126  85.9679 15.69918184  9026,6737.268,91.725,361.435,356.831,0.0
55406.0,STARLINK-5630,PAYLOAD,2023-03-29 00:10:53,15.69935477,0.0002973,70.0001,291.3433,279.3253,80.7607,9.1654e-05,0.00010827,0.0,0 STARLINK-5630,1 55406U 23014R   23088.00756830  .00010827  00000-0  91654-4 0  9997,2 55406  70.0001 291.3433 0002973 279.3253  80.7607 15.69935477  9044,6737.219,91.724,361.087,357.081,0.0
55406.0,STARLINK-5630,PAYLOAD,2023-03-29 20:03:40,15.69948658,0.0003281,70.0008,289.0144,267.9206,92.1614,0.00018334,0.00021912,0.0,0 STARLINK-5630,1 55406U 23014R   23088.83588514  .00021912  00000-0  18334-3 0  9990,2 55406  70.0008 289.0144 0003281 267.9206  92.1614 15.69948658  9172,6737.181,91.723,361.256,356.835,0.0
55406.0,STARLINK-5630,PAYLOAD,2023-03-30 00:38:56,15.69926261,0.0002919,70.0011,288.4777,262.1116,97.9748,8.1364e-05,9.582e-05,0.0,0 STARLINK-5630,1 55406U 23014R   23089.02704056  .00009582  00000-0  81364-4 0  9996,2 55406  70.0011 288.4777 0002919 262.1116  97.9748 15.69926261  9206,6737.245,91.724,361.077,357.143,0.0
55406.0,STARLINK-5630,PAYLOAD,2023-03-30 15:56:26,15.69968154,0.0003854,70.0009,286.6856,265.8432,94.2323,0.00036622,0.00044139,0.0,0 STARLINK-5630,1 55406U 23014R   23089.66419687  .00044139  00000-0  36622-3 0  9992,2 55406  70.0009 286.6856 0003854 265.8432  94.2323 15.69968154  9308,6737.125,91.722,361.587,356.394,0.0
55406.0,STARLINK-5630,PAYLOAD,2023-03-30 23:35:12,15.6993689,0.0003245,70.0007,285.789,263.6404,96.4422,0.00010096,0.0001195,0.0,0 STARLINK-5630,1 55406U 23014R   23089.98278416  .00011950  00000-0  10096-3 0  9992,2 55406  70.0007 285.7890 0003245 263.6404  96.4422 15.69936890  9354,6737.215,91.723,361.266,356.893,0.0
55406.0,STARLINK-5630,PAYLOAD,2023-03-31 19:27:59,15.69914448,0.0004113,70.0001,283.4614,260.1706,99.9025,0.00024961,0.000299,0.0,0 STARLINK-5630,1 55406U 23014R   23090.81111099  .00029900  00000-0  24961-3 0  9999,2 55406  70.0001 283.4614 0004113 260.1706  99.9025 15.69914448  9485,6737.279,91.725,361.915,356.373,0.0
55406.0,STARLINK-5630,PAYLOAD,2023-04-01 06:10:15,15.69939762,0.0003172,70.0008,282.2056,258.26,101.824,0.0002246,0.00026897,0.0,0 STARLINK-5630,1 55406U 23014R   23091.25712794  .00026897  00000-0  22460-3 0  9991,2 55406  70.0008 282.2056 0003172 258.2600 101.8240 15.69939762 10495,6737.206,91.723,361.208,356.934,0.0
55406.0,STARLINK-5630,PAYLOAD,2023-04-01 15:20:46,15.69932241,0.0003324,70.0015,281.1308,256.3887,103.6939,6.3001e-05,7.372e-05,0.0,0 STARLINK-5630,1 55406U 23014R   23091.63942690  .00007372  00000-0  63001-4 0  9997,2 55406  70.0015 281.1308 0003324 256.3887 103.6939 15.69932241  9618,6737.228,91.724,361.332,356.853,0.0
55406.0,STARLINK-5630,PAYLOAD,2023-04-02 12:45:17,15.6993436,0.0002957,70.0009,278.6238,214.583,145.5174,4.5047e-05,5.209e-05,0.0,0 STARLINK-5630,1 55406U 23014R   23092.53145797  .00005209  00000-0  45047-4 0  9997,2 55406  70.0009 278.6238 0002957 214.5830 145.5174 15.69934360  9754,6737.222,91.724,361.079,357.095,0.0
55406.0,STARLINK-5630,PAYLOAD,2023-04-02 14:17:03,15.69931602,0.0002935,70.0003,278.4442,223.2548,136.8418,2.0377e-05,2.239e-05,0.0,0 STARLINK-5630,1 55406U 23014R   23092.59517469  .00002239  00000-0  20377-4 0  9991,2 55406  70.0003 278.4442 0002935 223.2548 136.8418 15.69931602 10709,6737.23,91.724,361.072,357.117,0.0
55406.0,STARLINK-5630,PAYLOAD,2023-04-02 20:24:03,15.69926646,0.0002919,70.0006,277.7279,226.9424,133.1528,2.0325e-05,2.232e-05,0.0,0 STARLINK-5630,1 55406U 23014R   23092.85004339  .00002232  00000-0  20325-4 0  9993,2 55406  70.0006 277.7279 0002919 226.9424 133.1528 15.69926646  9800,6737.244,91.724,361.075,357.142,0.0
55406.0,STARLINK-5630,PAYLOAD,2023-04-02 21:55:50,15.69894446,0.0002855,70.0003,277.548,259.3529,100.7345,-6.9838e-05,-8.59e-05,0.0,0 STARLINK-5630,1 55406U 23014R   23092.91377320 -.00008590  00000-0 -69838-4 0  9990,2 55406  70.0003 277.5480 0002855 259.3529 100.7345 15.69894446 10759,6737.336,91.726,361.124,357.277,0.0
55406.0,STARLINK-5630,PAYLOAD,2023-04-02 23:27:35,15.69894436,0.0002827,70.0003,277.3688,260.2437,99.844,-6.6781e-05,-8.224e-05,0.0,0 STARLINK-5630,1 55406U 23014R   23092.97749111 -.00008224  00000-0 -66781-4 0  9995,2 55406  70.0003 277.3688 0002827 260.2437  99.8440 15.69894436  9824,6737.336,91.726,361.106,357.296,0.0
55406.0,STARLINK-5630,PAYLOAD,2023-04-03 11:41:35,15.69923362,0.0003234,69.9995,275.9326,254.2445,105.8394,6.7658e-06,6.01e-06,0.0,0 STARLINK-5630,1 55406U 23014R   23093.48721254  .00000601  00000-0  67658-5 0  9994,2 55406  69.9995 275.9326 0003234 254.2445 105.8394 15.69923362  9905,6737.253,91.724,361.297,356.939,0.0
55406.0,STARLINK-5630,PAYLOAD,2023-04-03 16:16:49,15.69945889,0.0002751,69.9997,275.3954,242.5154,117.5762,6.2431e-05,7.307e-05,0.0,0 STARLINK-5630,1 55406U 23014R   23093.67835456  .00007307  00000-0  62431-4 0  9998,2 55406  69.9997 275.3954 0002751 242.5154 117.5762 15.69945889  9938,6737.189,91.723,360.907,357.2,0.0
55406.0,STARLINK-5630,PAYLOAD,2023-04-03 22:23:50,15.69943262,0.0003422,70.0006,274.6825,255.2966,104.785,7.8082e-05,9.194e-05,0.0,0 STARLINK-5630,1 55406U 23014R   23093.93322266  .00009194  00000-0  78082-4 0  9992,2 55406  70.0006 274.6825 0003422 255.2966 104.7850 15.69943262  9972,6737.196,91.723,361.367,356.756,0.0
55406.0,STARLINK-5630,PAYLOAD,2023-04-04 21:20:07,15.69924713,0.0003506,69.9996,271.9938,258.4792,101.601,1.3567e-05,1.419e-05,0.0,0 STARLINK-5630,1 55406U 23014R   23094.88897893  .00001419  00000-0  13567-4 0  9999,2 55406  69.9996 271.9938 0003506 258.4792 101.6010 15.69924713 11064,6737.249,91.724,361.476,356.752,0.0
55406.0,STARLINK-5630,PAYLOAD,2023-04-05 14:09:23,15.69928472,0.0003618,69.9995,270.0227,264.057,96.0213,4.9341e-06,3.81e-06,0.0,0 STARLINK-5630,1 55406U 23014R   23095.58986090  .00000381  00000-0  49341-5 0  9992,2 55406  69.9995 270.0227 0003618 264.0570  96.0213 15.69928472 11175,6737.239,91.724,361.541,356.666,0.0
55406.0,STARLINK-5630,PAYLOAD,2023-04-05 20:16:24,15.69929401,0.0003619,69.9992,269.306,267.2681,92.81,1.4461e-05,1.527e-05,0.0,0 STARLINK-5630,1 55406U 23014R   23095.84472778  .00001527  00000-0  14461-4 0  9991,2 55406  69.9992 269.3060 0003619 267.2681  92.8100 15.69929401 11214,6737.236,91.724,361.539,356.663,0.0
55406.0,STARLINK-5630,PAYLOAD,2023-04-05 23:19:54,15.6993563,0.0003642,70.0003,268.9491,265.7748,94.3031,-1.1098e-06,-3.46e-06,0.0,0 STARLINK-5630,1 55406U 23014R   23095.97215741 -.00000346  00000-0 -11098-5 0  9994,2 55406  70.0003 268.9491 0003642 265.7748  94.3031 15.69935630 10294,6737.218,91.724,361.537,356.629,0.0
55406.0,STARLINK-5630,PAYLOAD,2023-04-06 10:02:10,15.69927321,0.0003287,70.0011,267.6993,269.0901,90.9918,2.4162e-05,2.694e-05,0.0,0 STARLINK-5630,1 55406U 23014R   23096.41818046  .00002694  00000-0  24162-4 0  9992,2 55406  70.0011 267.6993 0003287 269.0901  90.9918 15.69927321 10361,6737.242,91.724,361.321,356.892,0.0
55406.0,STARLINK-5630,PAYLOAD,2023-04-06 11:33:56,15.69919573,0.0003667,70.0002,267.5147,261.3775,98.7006,9.0846e-06,8.79e-06,0.0,0 STARLINK-5630,1 55406U 23014R   23096.48189937  .00000879  00000-0  90846-5 0  9995,2 55406  70.0002 267.5147 0003667 261.3775  98.7006 15.69919573 11317,6737.264,91.724,361.6,356.659,0.0
55406.0,STARLINK-5630,PAYLOAD,2023-04-06 17:40:56,15.69934697,0.0004126,69.9998,266.7967,267.1082,92.9642,4.6364e-05,5.369e-05,0.0,0 STARLINK-5630,1 55406U 23014R   23096.73676082  .00005369  00000-0  46364-4 0  9999,2 55406  69.9998 266.7967 0004126 267.1082  92.9642 15.69934697 11355,6737.221,91.724,361.866,356.306,0.0
55406.0,STARLINK-5630,PAYLOAD,2023-04-07 04:23:12,15.69916781,0.0003003,69.9988,265.5436,266.9093,93.1759,-6.5388e-06,-9.98e-06,0.0,0 STARLINK-5630,1 55406U 23014R   23097.18278510 -.00000998  00000-0 -65388-5 0  9996,2 55406  69.9988 265.5436 0003003 266.9093  93.1759 15.69916781 10483,6737.272,91.725,361.16,357.114,0.0
